[
    {
        "Altitude(m)": 612513.8985984529,
        "Argument of Periapsis(deg)": 0.0,
        "Eccentricity": 0.0,
        "Inclination(deg)": 60.0,
        "Latitude(deg)": -28.135856448440844,
        "Longitude(deg)": 122.91309222953292,
        "Mean Anomaly(deg)": 212.72730000000004,
        "RAAN(deg)": 25.0,
        "Satellite Name": "Test1 123",
        "Satellite Number": 123,
        "Semi-Major Axis(m)": 6980739.136638005,
        "Time(s)": 0
    },
    {
        "Altitude(m)": 612708.2662677438,
        "Argument of Periapsis(deg)": 0.00010418945913296404,
        "Eccentricity": 0.0,
        "Inclination(deg)": 60.0,
        "Latitude(deg)": -28.647595886021094,
        "Longitude(deg)": 123.27032175714989,
        "Mean Anomaly(deg)": 213.34740614546183,
        "RAAN(deg)": 24.99957995086026,
        "Satellite Name": "Test1 123",
        "Satellite Number": 123,
        "Semi-Major Axis(m)": 6980739.136638005,
        "Time(s)": 10
    },
    {
        "Altitude(m)": 612903.4606249561,
        "Argument of Periapsis(deg)": 0.0002083789182659281,
        "Eccentricity": 0.0,
        "Inclination(deg)": 60.0,
        "Latitude(deg)": -29.158095179364143,
        "Longitude(deg)": 123.6314184913452,
        "Mean Anomaly(deg)": 213.96751229092365,
        "RAAN(deg)": 24.999159901720514,
        "Satellite Name": "Test1 123",
        "Satellite Number": 123,
        "Semi-Major Axis(m)": 6980739.136638005,
        "Time(s)": 20
    },
    {
        "Altitude(m)": 613099.4104601151,
        "Argument of Periapsis(deg)": 0.00031256837739889213,
        "Eccentricity": 0.0,
        "Inclination(deg)": 60.0,
        "Latitude(deg)": -29.667317259749705,
        "Longitude(deg)": 123.99649390235238,
        "Mean Anomaly(deg)": 214.5876184363855,
        "RAAN(deg)": 24.998739852580773,
        "Satellite Name": "Test1 123",
        "Satellite Number": 123,
        "Semi-Major Axis(m)": 6980739.136638005,
        "Time(s)": 30
    },
    {
        "Altitude(m)": 613296.0440813884,
        "Argument of Periapsis(deg)": 0.0004167578365318562,
        "Eccentricity": 0.0,
        "Inclination(deg)": 60.0,
        "Latitude(deg)": -30.175224067701304,
        "Longitude(deg)": 124.36566244782826,
        "Mean Anomaly(deg)": 215.20772458184732,
        "RAAN(deg)": 24.998319803441028,
        "Satellite Name": "Test1 123",
        "Satellite Number": 123,
        "Semi-Major Axis(m)": 6980739.136638005,
        "Time(s)": 40
    },
    {
        "Altitude(m)": 613493.2893467947,
        "Argument of Periapsis(deg)": 0.0005209472956648203,
        "Eccentricity": 0.0,
        "Inclination(deg)": 60.0,
        "Latitude(deg)": -30.681776514477093,
        "Longitude(deg)": 124.73904063054158,
        "Mean Anomaly(deg)": 215.82783072730916,
        "RAAN(deg)": 24.997899754301287,
        "Satellite Name": "Test1 123",
        "Satellite Number": 123,
        "Semi-Major Axis(m)": 6980739.136638005,
        "Time(s)": 50
    },
    {
        "Altitude(m)": 613691.0736961178,
        "Argument of Periapsis(deg)": 0.0006251367547977843,
        "Eccentricity": 0.0,
        "Inclination(deg)": 60.0,
        "Latitude(deg)": -31.186934442222118,
        "Longitude(deg)": 125.11674756904844,
        "Mean Anomaly(deg)": 216.44793687277095,
        "RAAN(deg)": 24.997479705161545,
        "Satellite Name": "Test1 123",
        "Satellite Number": 123,
        "Semi-Major Axis(m)": 6980739.136638005,
        "Time(s)": 60
    },
    {
        "Altitude(m)": 613889.3241829536,
        "Argument of Periapsis(deg)": 0.0007293262139307483,
        "Eccentricity": 0.0,
        "Inclination(deg)": 60.0,
        "Latitude(deg)": -31.690656582741678,
        "Longitude(deg)": 125.49890556831674,
        "Mean Anomaly(deg)": 217.0680430182328,
        "RAAN(deg)": 24.997059656021804,
        "Satellite Name": "Test1 123",
        "Satellite Number": 123,
        "Semi-Major Axis(m)": 6980739.136638005,
        "Time(s)": 70
    },
    {
        "Altitude(m)": 614087.9675069785,
        "Argument of Periapsis(deg)": 0.0008335156730637124,
        "Eccentricity": 0.0,
        "Inclination(deg)": 60.0,
        "Latitude(deg)": -32.19290051485422,
        "Longitude(deg)": 125.88563917724062,
        "Mean Anomaly(deg)": 217.68814916369465,
        "RAAN(deg)": 24.99663960688206,
        "Satellite Name": "Test1 123",
        "Satellite Number": 123,
        "Semi-Major Axis(m)": 6980739.136638005,
        "Time(s)": 80
    },
    {
        "Altitude(m)": 614286.9300463393,
        "Argument of Periapsis(deg)": 0.0009377051321966765,
        "Eccentricity": 0.0,
        "Inclination(deg)": 60.0,
        "Latitude(deg)": -32.69362262029006,
        "Longitude(deg)": 126.2770757585783,
        "Mean Anomaly(deg)": 218.3082553091565,
        "RAAN(deg)": 24.996219557742318,
        "Satellite Name": "Test1 123",
        "Satellite Number": 123,
        "Semi-Major Axis(m)": 6980739.136638005,
        "Time(s)": 90
    },
    {
        "Altitude(m)": 614486.1378901394,
        "Argument of Periapsis(deg)": 0.0010418945913296407,
        "Eccentricity": 0.0,
        "Inclination(deg)": 60.0,
        "Latitude(deg)": -33.192778038095916,
        "Longitude(deg)": 126.67334605820533,
        "Mean Anomaly(deg)": 218.9283614546183,
        "RAAN(deg)": 24.995799508602577,
        "Satellite Name": "Test1 123",
        "Satellite Number": 123,
        "Semi-Major Axis(m)": 6980739.136638005,
        "Time(s)": 100
    },
    {
        "Altitude(m)": 614685.5168711009,
        "Argument of Periapsis(deg)": 0.0011460840504626045,
        "Eccentricity": 0.0,
        "Inclination(deg)": 60.0,
        "Latitude(deg)": -33.69032061750907,
        "Longitude(deg)": 127.07458326054693,
        "Mean Anomaly(deg)": 219.54846760008016,
        "RAAN(deg)": 24.99537945946283,
        "Satellite Name": "Test1 123",
        "Satellite Number": 123,
        "Semi-Major Axis(m)": 6980739.136638005,
        "Time(s)": 110
    },
    {
        "Altitude(m)": 614884.992598283,
        "Argument of Periapsis(deg)": 0.0012502735095955685,
        "Eccentricity": 0.0,
        "Inclination(deg)": 60.0,
        "Latitude(deg)": -34.186202869269486,
        "Longitude(deg)": 127.4809235556391,
        "Mean Anomaly(deg)": 220.16857374554195,
        "RAAN(deg)": 24.994959410323087,
        "Satellite Name": "Test1 123",
        "Satellite Number": 123,
        "Semi-Major Axis(m)": 6980739.136638005,
        "Time(s)": 120
    },
    {
        "Altitude(m)": 615084.4904898931,
        "Argument of Periapsis(deg)": 0.0013544629687285324,
        "Eccentricity": 0.0,
        "Inclination(deg)": 60.0,
        "Latitude(deg)": -34.68037591533641,
        "Longitude(deg)": 127.89250670461799,
        "Mean Anomaly(deg)": 220.7886798910038,
        "RAAN(deg)": 24.994539361183342,
        "Satellite Name": "Test1 123",
        "Satellite Number": 123,
        "Semi-Major Axis(m)": 6980739.136638005,
        "Time(s)": 130
    },
    {
        "Altitude(m)": 615283.9358061777,
        "Argument of Periapsis(deg)": 0.0014586524278614966,
        "Eccentricity": 0.0,
        "Inclination(deg)": 60.0,
        "Latitude(deg)": -35.172789436978725,
        "Longitude(deg)": 128.30947509040277,
        "Mean Anomaly(deg)": 221.40878603646564,
        "RAAN(deg)": 24.9941193120436,
        "Satellite Name": "Test1 123",
        "Satellite Number": 123,
        "Semi-Major Axis(m)": 6980739.136638005,
        "Time(s)": 140
    },
    {
        "Altitude(m)": 615483.2536823557,
        "Argument of Periapsis(deg)": 0.0015628418869944607,
        "Eccentricity": 0.0,
        "Inclination(deg)": 60.0,
        "Latitude(deg)": -35.663391621216235,
        "Longitude(deg)": 128.73197427891185,
        "Mean Anomaly(deg)": 222.0288921819275,
        "RAAN(deg)": 24.99369926290386,
        "Satellite Name": "Test1 123",
        "Satellite Number": 123,
        "Semi-Major Axis(m)": 6980739.136638005,
        "Time(s)": 150
    },
    {
        "Altitude(m)": 615682.369161588,
        "Argument of Periapsis(deg)": 0.0016670313461274247,
        "Eccentricity": 0.0,
        "Inclination(deg)": 60.0,
        "Latitude(deg)": -36.15212910558653,
        "Longitude(deg)": 129.16015357749498,
        "Mean Anomaly(deg)": 222.6489983273893,
        "RAAN(deg)": 24.99327921376412,
        "Satellite Name": "Test1 123",
        "Satellite Number": 123,
        "Semi-Major Axis(m)": 6980739.136638005,
        "Time(s)": 160
    },
    {
        "Altitude(m)": 615881.20722797,
        "Argument of Periapsis(deg)": 0.0017712208052603888,
        "Eccentricity": 0.0,
        "Inclination(deg)": 60.0,
        "Latitude(deg)": -36.63894692121931,
        "Longitude(deg)": 129.5941650772191,
        "Mean Anomaly(deg)": 223.26910447285115,
        "RAAN(deg)": 24.992859164624374,
        "Satellite Name": "Test1 123",
        "Satellite Number": 123,
        "Semi-Major Axis(m)": 6980739.136638005,
        "Time(s)": 170
    },
    {
        "Altitude(m)": 616079.6928395503,
        "Argument of Periapsis(deg)": 0.001875410264393353,
        "Eccentricity": 0.0,
        "Inclination(deg)": 60.0,
        "Latitude(deg)": -37.12378843420601,
        "Longitude(deg)": 130.03416420420837,
        "Mean Anomaly(deg)": 223.88921061831294,
        "RAAN(deg)": 24.992439115484633,
        "Satellite Name": "Test1 123",
        "Satellite Number": 123,
        "Semi-Major Axis(m)": 6980739.136638005,
        "Time(s)": 180
    },
    {
        "Altitude(m)": 616277.750961301,
        "Argument of Periapsis(deg)": 0.0019795997235263173,
        "Eccentricity": 0.0,
        "Inclination(deg)": 60.0,
        "Latitude(deg)": -37.60659528525808,
        "Longitude(deg)": 130.48031026657452,
        "Mean Anomaly(deg)": 224.50931676377482,
        "RAAN(deg)": 24.99201906634489,
        "Satellite Name": "Test1 123",
        "Satellite Number": 123,
        "Semi-Major Axis(m)": 6980739.136638005,
        "Time(s)": 190
    }
]